#cP2023  4  8  0  0  0.00000000      96 ORBIT IGS20 HLM  IGS
## 2256 518400.00000000   900.00000000 60042 0.0000000000000
+   32   G01G02G03G04G05G06G07G08G09G10G11G12G13G14G15G16G17
+        G18G19G20G21G22G23G24G25G26G27G28G29G30G31G32  0  0
+          0  0  0  0  0  0  0  0  0  0  0  0  0  0  0  0  0
+          0  0  0  0  0  0  0  0  0  0  0  0  0  0  0  0  0
+          0  0  0  0  0  0  0  0  0  0  0  0  0  0  0  0  0
++         2  2  2  2  2  2  2  2  2  2  3  2  2  2  2  2  2
++         3  2  2  2  3  2  2  2  2  2  3  2  3  2  2  0  0
++         0  0  0  0  0  0  0  0  0  0  0  0  0  0  0  0  0
++         0  0  0  0  0  0  0  0  0  0  0  0  0  0  0  0  0
++         0  0  0  0  0  0  0  0  0  0  0  0  0  0  0  0  0
%c G  cc GPS ccc cccc cccc cccc cccc ccccc ccccc ccccc ccccc
%c cc cc ccc ccc cccc cccc cccc cccc ccccc ccccc ccccc ccccc
%f  1.2500000  1.025000000  0.00000000000  0.000000000000000
%f  0.0000000  0.000000000  0.00000000000  0.000000000000000
%i    0    0    0    0      0      0      0      0         0
%i    0    0    0    0      0      0      0      0         0
/* RAPID ORBIT COMBINATION FROM WEIGHTED AVERAGE OF:        
/* cod emr esa gfz grg jpl ngs sio usn whu                  
/* REFERENCED TO IGS TIME (IGST) AND TO WEIGHTED MEAN POLE: 
/* PCV:IGS20_2233 OL/AL:FES2014b NONE     Y  ORB:CMB CLK:CMB
*  2023  4  8 18  0  0.00000000
PG01  13158.343196 -10924.705699  19886.768148    195.062955  5  6  4 103       
PG02 -10008.329183  17725.110389 -16733.364541   -607.926692  4  7  6 109       
PG03  23101.401497 -12942.018005    776.116911   -333.650747  6  7  8 107       
PG04  17714.025208  -4828.777018 -19221.025005     12.059708  5  5  2  82       
PG05 -21740.529264   1372.044620 -15447.545642   -122.637111  4  9  5 115       
PG06  -5517.060841 -24491.099604  -8452.326678    586.060615  6  9  7 101       
PG07   7094.054698 -23062.442018 -10081.399533    205.774106  7  7  7 104       
PG08  24179.387228   4650.330351  10389.391557   -116.817876  4  5  5  98       
PG09   7604.125222 -13351.579678 -21735.532438   -184.149405  7  7  5 108       
PG10   -679.402066  16658.111954  20777.380732    -31.983846  4  7  3  92       
PG11 -12477.139361 -13890.539928 -18895.100729   -155.986600  4 10  8  98       
PG12 -24359.243954  10035.139717   2667.554388   -361.496320  3  8  4  64       
PG13 -22710.693758 -12882.381659   5248.497983    502.800458  3  8  9 114       
PG14   4129.594925 -17878.877749  19160.591391     19.168356  5  9  7 115       
PG15 -24455.435278  -1623.604075  10105.654419     28.844325  3  7  6  93       
PG16  20467.861227   3422.021151 -17136.915150   -510.230755  4  6  5 109       
PG17  -6355.470873 -18782.346444  18050.534967    709.615976  4  9  6 101       
PG18  -5162.940629  24965.973002  -7171.687476   -215.434811  4  9  4  78       
PG19 -15184.005954 -19377.917520  10103.545561    300.988081  6  9  7 102       
PG20 -15443.448441  -6348.312781 -20579.655217    440.179068  7  7  4 120       
PG21  15427.394337   -986.603893  22163.151681    154.270744  4  5  2 113       
PG22  17328.893871  18718.302996   8143.508741    460.514592  7 10  5  69       
PG23 -12643.261270  18882.869771  13630.779578     15.528840  4  9  4  83       
PG24 -14730.782958   6582.834937  20686.399592   -144.052310  5  5  4 103       
PG25 -18995.324321  17150.164661  -6872.063847    434.084993  5  6  5  96       
PG26  10369.631400  12069.473625 -21396.457767    241.842060  7  7  2  96       
PG27  23339.560170  13150.370118     12.679195     63.282444  3  7  4 104       
PG28   5597.144265  25147.830663  -6497.535889     61.363631  5 10  7  78       
PG29 -12028.672868   9577.401108 -21717.336462   -594.637353  4  6  5  99       
PG30   -743.022520 -26385.200382   1096.604615   -523.318882  8 11  9 117       
PG31   9110.269985  20960.681075 -13329.256639   -213.517917  4  5  4  96       
PG32  10326.522052  18676.783407  16113.197088   -446.158803  4  4  6  92       
*  2023  4  8 18 15  0.00000000
PG01  13296.946883  -8521.304751  20955.679603    195.059816  4  6  4 111       
PG02 -10395.262003  15667.733484 -18393.134027   -607.923407  4  7  6 115       
PG03  22989.589517 -12617.353633   3658.323162   -333.643387  5  7  7  97       
PG04  19485.063918  -3672.071758 -17714.503498     12.067859  6  5  2  90       
PG05 -20315.481253    194.904216 -17340.861094   -122.638653  4  9  5 117       
PG06  -5370.054766 -25312.658852  -5687.946511    586.062027  5  9  7 103       
PG07   7429.343667 -21701.935517 -12511.372881    205.766535  7  7  8  98       
PG08  25019.590079   5298.307094   7819.925635   -116.820345  4  5  5 100       
PG09   9798.599296 -12237.610797 -21514.803568   -184.142356  7  6  5 113       
PG10  -2653.213136  17800.963796  19602.048077    -31.985397  5  7  3  91       
PG11 -12320.651085 -15959.093299 -17300.241088   -155.997789  4 10  8  95       
PG12 -24036.725052   9581.102844   5487.922516   -361.500410  3  8  3  93       
PG13 -22957.073605 -13321.700630   2431.731500    502.805637  4  9  9 126       
PG14   6031.823875 -18816.369396  17689.505217     19.178498  5  9  7 122       
PG15 -25357.872879  -2263.462122   7577.653178     28.847756  2  6  6  98       
PG16  18753.875696   4426.653704 -18777.525553   -510.228604  5  7  6 113       
PG17  -4527.123326 -17798.841725  19579.346539    709.617722  4  9  6 104       
PG18  -5394.899776  23995.118872  -9835.303466   -215.449939  5  9  4 104       
PG19 -13993.235419 -18788.716118  12554.337851    300.993025  5  9  6 116       
PG20 -13701.528911  -8011.783278 -21239.069504    440.177413  7  8  4 117       
PG21  15744.654270   1394.094275  21986.202553    154.270614  4  5  3 120       
PG22  16359.578197  18346.021599  10715.372329    460.521155  7 10  5  73       
PG23 -13932.765151  19521.288804  11254.535438     15.531069  4  9  5  75       
PG24 -15107.931627   4133.535728  21077.007907   -144.065639  6  5  4  91       
PG25 -19651.416739  17237.569441  -4108.524432    434.087554  5  6  5  97       
PG26   8395.924951  13491.819541 -21381.685285    241.841988  7  8  3 101       
PG27  23129.027320  13268.147710  -2826.897935     63.275094  3  7  5 101       
PG28   5397.199422  25745.891030  -3719.461642     61.369994  6 10  7  78       
PG29 -14062.980555   8248.322717 -21035.624677   -594.638736  4  6  5 107       
PG30   -394.956409 -26348.312523  -1724.111471   -523.317280  8 10  9 105       
PG31   8884.742120  22345.636924 -10954.056116   -213.518633  4  5  5  91       
PG32   8561.605350  17935.214271  17892.856746   -446.168063  4  5  6  82       
*  2023  4  8 18 30  0.00000000
PG01  13576.934007  -6029.839079  21650.714127    195.056735  4  5  4 117       
PG02 -10922.821439  13459.995438 -19727.026445   -607.920036  5  6  6 111       
PG03  22632.383592 -12096.705016   6476.969300   -333.635923  5  7  7 102       
PG04  21145.620524  -2693.630750 -15904.114788     12.076062  6  5  2  96       
PG05 -18801.264771  -1177.879126 -18940.771735   -122.639697  4  9  5 125       
PG06  -5240.369718 -25821.822717  -2824.926711    586.063463  5  9  7 101       
PG07   7857.346243 -20092.230806 -14715.193695    205.759028  7  6  8 104       
PG08  25619.635863   5784.986583   5118.593488   -116.821084  4  5  6 106       
PG09  12005.286010 -11256.152749 -20926.384680   -184.135314  6  5  6 109       
PG10  -4441.495086  18962.716665  18091.352694    -31.987001  5  7  4  97       
PG11 -12264.319672 -17835.528097 -15407.886443   -156.008947  5 10  8 103       
PG12 -23470.073948   8942.719769   8212.641302   -361.504741  3  8  3  90       
PG13 -22956.248989 -13575.030776   -426.471069    502.810673  5  9  8 115       
PG14   7732.894561 -19746.000100  15912.666048     19.188642  6  9  7 127       
PG15 -26008.029168  -2772.057390   4919.220382     28.850730  2  6  7 106       
PG16  16953.381146   5607.931518 -20107.250355   -510.226328  5  8  6 109       
PG17  -2515.494798 -16847.263159  20781.830610    709.619572  4  9  6 105       
PG18  -5702.247296  22746.070482 -12328.264325   -215.465032  4  9  4 114       
PG19 -12540.127666 -18131.040293  14789.499175    300.997538  5  9  6 115       
PG20 -12007.923071  -9796.787955 -21531.143316    440.175428  7  8  3 122       
PG21  16182.231433   3708.562505  21452.180287    154.270695  4  5  3 121       
PG22  15132.198758  17889.816851  13108.034308    460.527358  7  9  6 100       
PG23 -14963.107758  20057.212759   8683.120716     15.533286  4  9  5  74       
PG24 -15602.653857   1685.611656  21092.398224   -144.078942  6  5  4 105       
PG25 -20048.402833  17167.971197  -1273.510707    434.090104  4  6  6  93       
PG26   6507.332621  14995.686075 -21002.297813    241.841889  7  9  4 112       
PG27  22638.250918  13266.879059  -5619.203623     63.267766  3  7  5 100       
PG28   5186.070456  26038.409768   -877.423623     61.376317  6 11  8  86       
PG29 -16081.125869   7079.826911 -19994.134659   -594.640124  4  6  5 102       
PG30    -17.046354 -26010.539045  -4514.626369   -523.315639  7  9  8 108       
PG31   8706.403089  23462.256495  -8387.448517   -213.519337  5  5  5  74       
PG32   6592.813595  17213.427306  19370.825733   -446.177288  4  6  6  87       
EOF
